     2.100          NAVIGATION                              RINEX VERSION / TYPE
fic2rin                                 10/30/2015 00:04:04 PGM / RUN BY / DATE
                                                            END OF HEADER
12 15 10 30  0  0  0.0  .341065227985D-03  .318323145621D-11  .000000000000D+00
     .870000000000D+02 -.112375000000D+03  .404766860164D-08 -.380443188517D+00
    -.592134892941D-05  .552160129882D-02  .459700822830D-05  .515358693314D+04
     .432000000000D+06  .447034835815D-07 -.453291953338D+00  .122934579849D-06
     .990324724188D+00  .305718750000D+03  .642181009897D+00 -.816355433052D-08
    -.439304013061D-09  .100000000000D+01  .186800000000D+04  .000000000000D+00
     .240000000000D+01  .000000000000D+00 -.125728547573D-07  .870000000000D+02
     .424806000000D+06  .400000000000D+01
13 15 10 30  0  0  0.0 -.160435680300D-03 -.284217094304D-11  .000000000000D+00
     .880000000000D+02  .109843750000D+03  .409838499990D-08  .948732070179D+00
     .567920506001D-05  .466075539589D-02  .122301280499D-04  .515369390488D+04
     .432000000000D+06 -.260770320892D-07 -.248539153421D+01 -.130385160446D-06
     .973244541187D+00  .148781250000D+03  .204864777518D+01 -.779139597149D-08
     .785747015231D-11  .100000000000D+01  .186800000000D+04  .000000000000D+00
     .240000000000D+01  .000000000000D+00 -.111758708954D-07  .880000000000D+02
     .424806000000D+06  .400000000000D+01
14 15 10 30  0  0  0.0  .250074081123D-04 -.238742359215D-11  .000000000000D+00
     .560000000000D+02  .835937500000D+02  .416945938901D-08  .285113959505D+01
     .436417758465D-05  .841177429538D-02  .114385038614D-04  .515368224144D+04
     .432000000000D+06  .465661287308D-07 -.252103931486D+01 -.100582838058D-06
     .965757718520D+00  .158125000000D+03 -.195066958876D+01 -.766389066038D-08
    -.825034365993D-10  .100000000000D+01  .186800000000D+04  .000000000000D+00
     .240000000000D+01  .000000000000D+00 -.931322574615D-08  .560000000000D+02
     .424806000000D+06  .400000000000D+01
15 15 10 30  0  0  0.0 -.279449857771D-03 -.204636307899D-11  .000000000000D+00
     .210000000000D+02  .758437500000D+02  .498592196938D-08  .213956620714D+01
     .401027500629D-05  .765212671831D-02  .127851963043D-04  .515375169373D+04
     .432000000000D+06 -.232830643654D-06 -.265025704747D+01  .186264514923D-07
     .932562818470D+00  .118250000000D+03  .423903473967D+00 -.815533970263D-08
    -.203579908492D-09  .100000000000D+01  .186800000000D+04  .000000000000D+00
     .240000000000D+01  .000000000000D+00 -.107102096081D-07  .210000000000D+02
     .424806000000D+06  .400000000000D+01
16 15 10 30  0  0  0.0 -.715898349881D-04  .375166564481D-11  .000000000000D+00
     .900000000000D+02 -.109468750000D+03  .384730311276D-08 -.240525014032D+01
    -.567175447941D-05  .814794120379D-02  .538304448128D-05  .515365036774D+04
     .432000000000D+06 -.167638063431D-07 -.434575274102D+00 -.154599547386D-06
     .990867431686D+00  .291875000000D+03  .316423941836D+00 -.789532887214D-08
    -.311441544219D-09  .100000000000D+01  .186800000000D+04  .000000000000D+00
     .240000000000D+01  .000000000000D+00 -.102445483208D-07  .900000000000D+02
     .424806000000D+06  .400000000000D+01
17 15 10 30  0  0  0.0 -.192447565496D-03 -.102318153949D-11  .000000000000D+00
     .470000000000D+02 -.586875000000D+02  .368086760862D-08  .290072078973D+01
    -.298954546452D-05  .105458317557D-01  .132378190756D-04  .515359584999D+04
     .432000000000D+06  .502914190292D-07  .589195312270D+00 -.614672899246D-07
     .974294530158D+00  .126906250000D+03 -.200148188605D+01 -.739066499372D-08
     .369301097159D-09  .100000000000D+01  .186800000000D+04  .000000000000D+00
     .240000000000D+01  .000000000000D+00 -.107102096081D-07  .470000000000D+02
     .424806000000D+06  .400000000000D+01
18 15 10 30  0  0  0.0  .447789672762D-03  .363797880709D-11  .000000000000D+00
     .101000000000D+03 -.319062500000D+02  .559380443298D-08 -.184241180469D+01
    -.151805579662D-05  .163733911468D-01  .647641718388D-05  .515363413048D+04
     .432000000000D+06  .307336449623D-06  .261365988858D+01  .521540641785D-07
     .925116642982D+00  .229281250000D+03 -.193198633281D+01 -.835570519152D-08
    -.341085636157D-09  .100000000000D+01  .186800000000D+04  .000000000000D+00
     .240000000000D+01  .000000000000D+00 -.111758708954D-07  .101000000000D+03
     .424806000000D+06  .400000000000D+01
19 15 10 30  0  0  0.0 -.522132497281D-03 -.454747350886D-12  .000000000000D+00
     .104000000000D+03 -.416250000000D+02  .395552190622D-08  .111554644925D+01
    -.198185443878D-05  .113517006394D-01  .124424695969D-04  .515516302299D+04
     .432000000000D+06 -.178813934326D-06  .638364682337D+00  .409781932831D-07
     .971323653678D+00  .148437500000D+03  .657291304947D+00 -.774067957323D-08
     .219652006531D-09  .100000000000D+01  .186800000000D+04  .000000000000D+00
     .240000000000D+01  .000000000000D+00 -.149011611938D-07  .104000000000D+03
     .424806000000D+06  .400000000000D+01
20 15 10 30  0  0  0.0  .366996508092D-03  .295585778076D-11  .000000000000D+00
     .320000000000D+02 -.372812500000D+02  .569666586043D-08  .220758111759D+01
    -.198744237423D-05  .498622597661D-02  .677816569805D-05  .515365249062D+04
     .432000000000D+06  .447034835815D-07  .256155061493D+01 -.949949026108D-07
     .926291157002D+00  .230906250000D+03  .125722323340D+01 -.850892585949D-08
    -.421088968617D-09  .100000000000D+01  .186800000000D+04  .000000000000D+00
     .240000000000D+01  .000000000000D+00 -.838190317154D-08  .320000000000D+02
     .424806000000D+06  .400000000000D+01
21 15 10 30  0  0  0.0 -.490058213472D-03 -.250111042988D-11  .000000000000D+00
     .800000000000D+02  .337812500000D+02  .549665752928D-08 -.906905772060D+00
     .221095979214D-05  .226239678450D-01  .667572021484D-05  .515372548294D+04
     .432000000000D+06 -.141561031342D-06  .157058797800D+01  .448897480965D-06
     .934418159936D+00  .241250000000D+03 -.186627281195D+01 -.879750930872D-08
     .517164399116D-09  .100000000000D+01  .186800000000D+04  .000000000000D+00
     .240000000000D+01  .000000000000D+00 -.116415321827D-07  .800000000000D+02
     .424806000000D+06  .400000000000D+01
22 15 10 30  0  0  0.0  .405658502132D-03  .375166564481D-11  .000000000000D+00
     .170000000000D+02 -.390625000000D+02  .565987861381D-08 -.232817928128D+01
    -.214017927647D-05  .799878081307D-02  .675022602081D-05  .515367043877D+04
     .432000000000D+06  .126659870148D-06  .261454426206D+01 -.558793544769D-08
     .922947711860D+00  .225937500000D+03 -.204601655463D+01 -.848285334489D-08
    -.349657421778D-09  .100000000000D+01  .186800000000D+04  .000000000000D+00
     .240000000000D+01  .000000000000D+00 -.176951289177D-07  .170000000000D+02
     .424806000000D+06  .400000000000D+01
23 15 10 30  0  0  0.0 -.141594093293D-03 -.204636307899D-11  .000000000000D+00
     .910000000000D+02  .842187500000D+02  .470233872843D-08  .169129937887D+01
     .448711216450D-05  .103919639951D-01  .117197632790D-04  .515378901291D+04
     .432000000000D+06 -.160187482834D-06 -.259569318161D+01  .162050127983D-06
     .947712231950D+00  .150312500000D+03 -.262451090203D+01 -.810248035797D-08
    -.151434879299D-09  .100000000000D+01  .186800000000D+04  .000000000000D+00
     .240000000000D+01  .000000000000D+00 -.200234353542D-07  .910000000000D+02
     .424806000000D+06  .400000000000D+01
25 15 10 30  0  0  0.0 -.597229227424D-04 -.557065504836D-11  .000000000000D+00
     .820000000000D+02 -.106781250000D+03  .427160650099D-08 -.101829667022D+01
    -.566057860851D-05  .467460090294D-02  .422634184361D-05  .515360898781D+04
     .432000000000D+06  .169500708580D-06 -.501710662103D+00  .128522515297D-06
     .978680971522D+00  .308312500000D+03  .724105721407D+00 -.821498504424D-08
    -.447875798682D-09  .100000000000D+01  .186800000000D+04  .000000000000D+00
     .240000000000D+01  .000000000000D+00  .558793544769D-08  .820000000000D+02
     .424806000000D+06  .400000000000D+01
26 15 10 30  0  0  0.0 -.102323945612D-03 -.143245415529D-10  .000000000000D+00
     .105000000000D+03 -.103593750000D+03  .456340436982D-08 -.136355378675D+01
    -.531412661076D-05  .277594896033D-03  .424683094025D-05  .515365798378D+04
     .432000000000D+06 -.149011611938D-07 -.507006160762D+00  .000000000000D+00
     .960736749605D+00  .298812500000D+03 -.241162149234D+00 -.831391773662D-08
    -.341442793891D-09  .100000000000D+01  .186800000000D+04  .000000000000D+00
     .240000000000D+01  .000000000000D+00  .745058059692D-08  .105000000000D+03
     .424806000000D+06  .400000000000D+01
27 15 10 30  0  0  0.0  .315913930535D-04  .306954461848D-11  .000000000000D+00
     .590000000000D+02 -.524062500000D+02  .394052128139D-08  .284964253686D+01
    -.271387398243D-05  .272355531342D-02  .116936862469D-04  .515371241188D+04
     .432000000000D+06 -.558793544769D-08  .540528953418D+00 -.186264514923D-07
     .969249073457D+00  .158968750000D+03  .298061692540D+00 -.770532095755D-08
     .276797244002D-09  .100000000000D+01  .186800000000D+04  .000000000000D+00
     .240000000000D+01  .000000000000D+00  .186264514923D-08  .590000000000D+02
     .424806000000D+06  .400000000000D+01
28 15 10 30  0  0  0.0  .477857422084D-03  .261479726760D-11  .000000000000D+00
     .950000000000D+02 -.137343750000D+03  .376479967616D-08 -.259810555547D+01
    -.694766640663D-05  .198721208144D-01  .521354377270D-05  .515370345116D+04
     .432000000000D+06  .197440385818D-06 -.429384192684D+00  .968575477600D-07
     .989524509462D+00  .289593750000D+03 -.165331518639D+01 -.764174688086D-08
    -.349300264044D-09  .100000000000D+01  .186800000000D+04  .000000000000D+00
     .240000000000D+01  .000000000000D+00 -.111758708954D-07  .950000000000D+02
     .424806000000D+06  .400000000000D+01
